start=new Date('2022-11-03T00:00:00.000Z').valueOf();
sats=[{"GP_ID":"216791308","SITE":"AFETR","ECCENTRICITY":"0.00019570","BSTAR":"0.00004677500000","TLE_LINE1":"1 51987U 22025AH  22306.59175407  .00000456  00000-0  46775-4 0  9990","DECAY_DATE":null,"PERIOD":"95.438","MEAN_MOTION":"15.08839734","RA_OF_ASC_NODE":"129.8283","MEAN_MOTION_DOT":"0.00000456","REV_AT_EPOCH":"3641","ELEMENT_SET_NO":"999","FILE":"3643025","REF_FRAME":"TEME","CENTER_NAME":"EARTH","CLASSIFICATION_TYPE":"U","INCLINATION":"53.2179","MEAN_MOTION_DDOT":"0.0000000000000","NORAD_CAT_ID":"51987","OBJECT_NAME":"STARLINK-3644","PERIAPSIS":"538.392","RCS_SIZE":"LARGE","EPHEMERIS_TYPE":"0","MEAN_ELEMENT_THEORY":"SGP4","SEMIMAJOR_AXIS":"6917.881","OBJECT_TYPE":"PAYLOAD","MEAN_ANOMALY":"304.5732","OBJECT_ID":"2022-025AH","EPOCH":"2022-11-02T14:12:07.551648","TLE_LINE2":"2 51987  53.2179 129.8283 0001957  55.5445 304.5732 15.08839734 36418","ARG_OF_PERICENTER":"55.5445","LAUNCH_DATE":"2022-03-09","TIME_SYSTEM":"UTC","APOAPSIS":"541.100","COUNTRY_CODE":"US"},{"MEAN_ANOMALY":"304.9947","OBJECT_ID":"2022-025AJ","EPOCH":"2022-11-02T20:07:10.870464","SEMIMAJOR_AXIS":"6917.902","OBJECT_TYPE":"PAYLOAD","APOAPSIS":"540.958","COUNTRY_CODE":"US","ARG_OF_PERICENTER":"55.1207","TLE_LINE2":"2 51988  53.2189 128.7277 0001721  55.1207 304.9947 15.08832884 36457","TIME_SYSTEM":"UTC","LAUNCH_DATE":"2022-03-09","CLASSIFICATION_TYPE":"U","INCLINATION":"53.2189","MEAN_MOTION_DDOT":"0.0000000000000","REF_FRAME":"TEME","CENTER_NAME":"EARTH","PERIAPSIS":"538.577","RCS_SIZE":"LARGE","EPHEMERIS_TYPE":"0","MEAN_ELEMENT_THEORY":"SGP4","NORAD_CAT_ID":"51988","OBJECT_NAME":"STARLINK-3640","REV_AT_EPOCH":"3645","ELEMENT_SET_NO":"999","RA_OF_ASC_NODE":"128.7277","MEAN_MOTION_DOT":"0.00000111","FILE":"3643025","SITE":"AFETR","ECCENTRICITY":"0.00017210","BSTAR":"0.00002509100000","TLE_LINE1":"1 51988U 22025AJ  22306.83832026  .00000111  00000-0  25091-4 0  9991","GP_ID":"216792058","PERIOD":"95.438","MEAN_MOTION":"15.08832884","DECAY_DATE":null},{"EPHEMERIS_TYPE":"0","MEAN_ELEMENT_THEORY":"SGP4","PERIAPSIS":"538.401","RCS_SIZE":"LARGE","OBJECT_NAME":"STARLINK-3642","NORAD_CAT_ID":"51989","CLASSIFICATION_TYPE":"U","INCLINATION":"53.2172","MEAN_MOTION_DDOT":"0.0000000000000","REF_FRAME":"TEME","CENTER_NAME":"EARTH","APOAPSIS":"541.086","COUNTRY_CODE":"US","TIME_SYSTEM":"UTC","LAUNCH_DATE":"2022-03-09","TLE_LINE2":"2 51989  53.2172 129.8494 0001940  41.5749 318.5390 15.08840604 36414","ARG_OF_PERICENTER":"41.5749","EPOCH":"2022-11-02T14:06:49.801824","MEAN_ANOMALY":"318.5390","OBJECT_ID":"2022-025AK","OBJECT_TYPE":"PAYLOAD","SEMIMAJOR_AXIS":"6917.879","PERIOD":"95.438","MEAN_MOTION":"15.08840604","DECAY_DATE":null,"ECCENTRICITY":"0.00019400","BSTAR":"0.00006492100000","TLE_LINE1":"1 51989U 22025AK  22306.58807641  .00000745  00000-0  64921-4 0  9997","SITE":"AFETR","GP_ID":"216790308","FILE":"3643025","ELEMENT_SET_NO":"999","REV_AT_EPOCH":"3641","MEAN_MOTION_DOT":"0.00000745","RA_OF_ASC_NODE":"129.8494"},{"FILE":"3643025","RA_OF_ASC_NODE":"108.7840","MEAN_MOTION_DOT":"-0.00001948","ELEMENT_SET_NO":"999","REV_AT_EPOCH":"3672","DECAY_DATE":null,"PERIOD":"95.437","MEAN_MOTION":"15.08843326","GP_ID":"216790556","ECCENTRICITY":"0.00012490","BSTAR":"-0.00010430000000","TLE_LINE1":"1 51990U 22025AL  22306.82174873 -.00001948  00000-0 -10430-3 0  9993","SITE":"AFETR","LAUNCH_DATE":"2022-03-09","TIME_SYSTEM":"UTC","TLE_LINE2":"2 51990  53.2166 108.7840 0001249  76.3540 283.7591 15.08843326 36721","ARG_OF_PERICENTER":"76.3540","APOAPSIS":"540.599","COUNTRY_CODE":"US","OBJECT_TYPE":"PAYLOAD","SEMIMAJOR_AXIS":"6917.870","EPOCH":"2022-11-02T19:43:19.090272","MEAN_ANOMALY":"283.7591","OBJECT_ID":"2022-025AL","OBJECT_NAME":"STARLINK-3657","NORAD_CAT_ID":"51990","EPHEMERIS_TYPE":"0","MEAN_ELEMENT_THEORY":"SGP4","PERIAPSIS":"538.871","RCS_SIZE":"LARGE","REF_FRAME":"TEME","CENTER_NAME":"EARTH","CLASSIFICATION_TYPE":"U","INCLINATION":"53.2166","MEAN_MOTION_DDOT":"0.0000000000000"},{"GP_ID":"216791808","TLE_LINE1":"1 51991U 22025AM  22306.77943220  .00000655  00000-0  59221-4 0  9992","BSTAR":"0.00005922100000","ECCENTRICITY":"0.00017450","SITE":"AFETR","DECAY_DATE":null,"MEAN_MOTION":"15.08847512","PERIOD":"95.437","MEAN_MOTION_DOT":"0.00000655","RA_OF_ASC_NODE":"128.9919","ELEMENT_SET_NO":"999","REV_AT_EPOCH":"3644","FILE":"3643025","CENTER_NAME":"EARTH","REF_FRAME":"TEME","INCLINATION":"53.2170","MEAN_MOTION_DDOT":"0.0000000000000","CLASSIFICATION_TYPE":"U","OBJECT_NAME":"STARLINK-3652","NORAD_CAT_ID":"51991","MEAN_ELEMENT_THEORY":"SGP4","EPHEMERIS_TYPE":"0","RCS_SIZE":"LARGE","PERIAPSIS":"538.515","OBJECT_TYPE":"PAYLOAD","SEMIMAJOR_AXIS":"6917.857","EPOCH":"2022-11-02T18:42:22.942080","OBJECT_ID":"2022-025AM","MEAN_ANOMALY":"309.0992","LAUNCH_DATE":"2022-03-09","TIME_SYSTEM":"UTC","TLE_LINE2":"2 51991  53.2170 128.9919 0001745  51.0155 309.0992 15.08847512 36448","ARG_OF_PERICENTER":"51.0155","COUNTRY_CODE":"US","APOAPSIS":"540.930"},{"NORAD_CAT_ID":"51992","OBJECT_NAME":"STARLINK-3643","PERIAPSIS":"538.582","RCS_SIZE":"LARGE","EPHEMERIS_TYPE":"0","MEAN_ELEMENT_THEORY":"SGP4","REF_FRAME":"TEME","CENTER_NAME":"EARTH","CLASSIFICATION_TYPE":"U","INCLINATION":"53.2172","MEAN_MOTION_DDOT":"0.0000000000000","TLE_LINE2":"2 51992  53.2172 109.1433 0001701  52.9837 307.1310 15.08835760 36289","ARG_OF_PERICENTER":"52.9837","TIME_SYSTEM":"UTC","LAUNCH_DATE":"2022-03-09","APOAPSIS":"540.935","COUNTRY_CODE":"US","SEMIMAJOR_AXIS":"6917.893","OBJECT_TYPE":"PAYLOAD","MEAN_ANOMALY":"307.1310","OBJECT_ID":"2022-025AN","EPOCH":"2022-11-02T17:52:02.300448","DECAY_DATE":null,"PERIOD":"95.438","MEAN_MOTION":"15.08835760","GP_ID":"216791559","SITE":"AFETR","ECCENTRICITY":"0.00017010","BSTAR":"0.00008138400000","TLE_LINE1":"1 51992U 22025AN  22306.74447107  .00001007  00000-0  81384-4 0  9990","FILE":"3643025","MEAN_MOTION_DOT":"0.00001007","RA_OF_ASC_NODE":"109.1433","REV_AT_EPOCH":"3628","ELEMENT_SET_NO":"999"},{"FILE":"3643025","RA_OF_ASC_NODE":"129.3320","MEAN_MOTION_DOT":"0.00000596","REV_AT_EPOCH":"3643","ELEMENT_SET_NO":"999","DECAY_DATE":null,"MEAN_MOTION":"15.08831386","PERIOD":"95.438","GP_ID":"216790808","SITE":"AFETR","TLE_LINE1":"1 51993U 22025AP  22306.70216160  .00000596  00000-0  55568-4 0  9997","BSTAR":"0.00005556800000","ECCENTRICITY":"0.00015620","TLE_LINE2":"2 51993  53.2143 129.3320 0001562  67.5817 292.5340 15.08831386 36439","ARG_OF_PERICENTER":"67.5817","TIME_SYSTEM":"UTC","LAUNCH_DATE":"2022-03-09","COUNTRY_CODE":"US","APOAPSIS":"540.852","SEMIMAJOR_AXIS":"6917.907","OBJECT_TYPE":"PAYLOAD","OBJECT_ID":"2022-025AP","MEAN_ANOMALY":"292.5340","EPOCH":"2022-11-02T16:51:06.762240","NORAD_CAT_ID":"51993","OBJECT_NAME":"STARLINK-3648","PERIAPSIS":"538.691","RCS_SIZE":"LARGE","MEAN_ELEMENT_THEORY":"SGP4","EPHEMERIS_TYPE":"0","CENTER_NAME":"EARTH","REF_FRAME":"TEME","MEAN_MOTION_DDOT":"0.0000000000000","INCLINATION":"53.2143","CLASSIFICATION_TYPE":"U"},{"PERIAPSIS":"538.623","RCS_SIZE":"LARGE","MEAN_ELEMENT_THEORY":"SGP4","EPHEMERIS_TYPE":"0","NORAD_CAT_ID":"51994","OBJECT_NAME":"STARLINK-3647","INCLINATION":"53.2169","MEAN_MOTION_DDOT":"0.0000000000000","CLASSIFICATION_TYPE":"U","CENTER_NAME":"EARTH","REF_FRAME":"TEME","COUNTRY_CODE":"US","APOAPSIS":"540.886","TLE_LINE2":"2 51994  53.2169 110.0526 0001636  62.8434 297.2725 15.08837004 36261","ARG_OF_PERICENTER":"62.8434","LAUNCH_DATE":"2022-03-09","TIME_SYSTEM":"UTC","OBJECT_ID":"2022-025AQ","MEAN_ANOMALY":"297.2725","EPOCH":"2022-11-02T13:00:34.988832","SEMIMAJOR_AXIS":"6917.890","OBJECT_TYPE":"PAYLOAD","MEAN_MOTION":"15.08837004","PERIOD":"95.438","DECAY_DATE":null,"SITE":"AFETR","TLE_LINE1":"1 51994U 22025AQ  22306.54207163  .00000542  00000-0  52142-4 0  9999","BSTAR":"0.00005214200000","ECCENTRICITY":"0.00016360","GP_ID":"216791056","FILE":"3643025","REV_AT_EPOCH":"3626","ELEMENT_SET_NO":"999","RA_OF_ASC_NODE":"110.0526","MEAN_MOTION_DOT":"0.00000542"},{"REF_FRAME":"TEME","CENTER_NAME":"EARTH","CLASSIFICATION_TYPE":"U","MEAN_MOTION_DDOT":"0.0000000000000","INCLINATION":"53.2161","OBJECT_NAME":"STARLINK-3636","NORAD_CAT_ID":"51995","EPHEMERIS_TYPE":"0","MEAN_ELEMENT_THEORY":"SGP4","PERIAPSIS":"538.893","RCS_SIZE":"LARGE","OBJECT_TYPE":"PAYLOAD","SEMIMAJOR_AXIS":"6917.900","EPOCH":"2022-11-02T19:38:01.709376","MEAN_ANOMALY":"312.2938","OBJECT_ID":"2022-025AR","TIME_SYSTEM":"UTC","LAUNCH_DATE":"2022-03-09","TLE_LINE2":"2 51995  53.2161 108.7997 0001261  47.8161 312.2938 15.08833426 36295","ARG_OF_PERICENTER":"47.8161","APOAPSIS":"540.638","COUNTRY_CODE":"US","GP_ID":"216791309","ECCENTRICITY":"0.00012610","BSTAR":"0.00000769800000","TLE_LINE1":"1 51995U 22025AR  22306.81807534 -.00000165  00000-0  76980-5 0  9997","SITE":"AFETR","DECAY_DATE":null,"PERIOD":"95.438","MEAN_MOTION":"15.08833426","MEAN_MOTION_DOT":"-0.00000165","RA_OF_ASC_NODE":"108.7997","ELEMENT_SET_NO":"999","REV_AT_EPOCH":"3629","FILE":"3643025"},{"FILE":"3643025","REV_AT_EPOCH":"3631","ELEMENT_SET_NO":"999","RA_OF_ASC_NODE":"108.5822","MEAN_MOTION_DOT":"-0.00001089","MEAN_MOTION":"15.08833776","PERIOD":"95.438","DECAY_DATE":null,"SITE":"AFETR","TLE_LINE1":"1 51996U 22025AS  22306.86959472 -.00001089  00000-0 -50371-4 0  9994","BSTAR":"-0.00005037100000","ECCENTRICITY":"0.00015800","GP_ID":"216792059","COUNTRY_CODE":"US","APOAPSIS":"540.857","TLE_LINE2":"2 51996  53.2173 108.5822 0001580  62.1388 297.9764 15.08833776 36316","ARG_OF_PERICENTER":"62.1388","LAUNCH_DATE":"2022-03-09","TIME_SYSTEM":"UTC","OBJECT_ID":"2022-025AS","MEAN_ANOMALY":"297.9764","EPOCH":"2022-11-02T20:52:12.983808","SEMIMAJOR_AXIS":"6917.899","OBJECT_TYPE":"PAYLOAD","PERIAPSIS":"538.671","RCS_SIZE":"LARGE","MEAN_ELEMENT_THEORY":"SGP4","EPHEMERIS_TYPE":"0","NORAD_CAT_ID":"51996","OBJECT_NAME":"STARLINK-3538","MEAN_MOTION_DDOT":"0.0000000000000","INCLINATION":"53.2173","CLASSIFICATION_TYPE":"U","CENTER_NAME":"EARTH","REF_FRAME":"TEME"}];
